GSAT0101 (PRN E11)      
1 37846U 11060A   20257.52641146 -.00000042  00000-0  00000-0 0  9998
2 37846  56.6850  38.8659 0001303  40.5848 319.4321  1.70475345 55273
GSAT0102 (PRN E12)      
1 37847U 11060B   20257.69173258 -.00000042  00000-0  00000-0 0  9991
2 37847  56.6862  38.8608 0001809 315.4273 192.1648  1.70475456 55280
GSAT0103 (PRN E19)      
1 38857U 12055A   20258.15500889 -.00000000  00000-0  00000-0 0  9998
2 38857  54.9901 159.3410 0002619 273.2990  86.7180  1.70473788 49327
GSAT0104 (PRN E20)      
1 38858U 12055B   20258.08939248 -.00000000  00000-0  00000+0 0  9995
2 38858  54.9906 159.3424 0001538 291.7831  68.2472  1.70473759 49277
GSAT0201 (PRN E18)      
1 40128U 14050A   20257.25844657 -.00000084  00000-0  00000+0 0  9994
2 40128  50.5557 357.8722 1660085 102.2602 276.7476  1.85519254 41247
GSAT0202 (PRN E14)      
1 40129U 14050B   20255.90484951 -.00000088  00000-0  00000-0 0  9997
2 40129  50.5916 356.9661 1657926 103.0327 275.9276  1.85519942 41447
GSAT0203 (PRN E26)      
1 40544U 15017A   20256.13433769 -.00000042  00000-0  00000-0 0  9999
2 40544  56.4777  39.0260 0003096 217.7680 142.2206  1.70474989 33994
GSAT0204 (PRN E22)      
1 40545U 15017B   20257.67512966 -.00000042  00000-0  00000+0 0  9996
2 40545  56.4851  38.9997 0003193 170.7141 189.2989  1.70475197 34027
GSAT0205 (PRN E24)      
1 40889U 15045A   20257.33086695  .00000045  00000-0  00000-0 0  9999
2 40889  56.0857 279.6808 0003203 332.5365  27.5102  1.70475125 31167
GSAT0206 (PRN E30)      
1 40890U 15045B   20258.13700310  .00000045  00000-0  00000-0 0  9997
2 40890  56.0842 279.6551 0002621 298.2044  61.8326  1.70475159 31204
GSAT0209 (PRN E09)      
1 41174U 15079A   20257.72363476 -.00000001  00000-0  00000+0 0  9994
2 41174  55.0050 159.0513 0004254 323.4327  36.5842  1.70472821 29514
GSAT0208 (PRN E08)      
1 41175U 15079B   20257.94337328 -.00000000  00000-0  00000-0 0  9996
2 41175  55.0030 159.0446 0003479 327.4508  32.5745  1.70472830 29520
GSAT0211 (PRN E02)      
1 41549U 16030A   20256.30511110  .00000044  00000-0  00000+0 0  9997
2 41549  56.2283 279.5709 0004578 288.2598  71.7524  1.70474936 26786
GSAT0210 (PRN E01)      
1 41550U 16030B   20257.18459345  .00000046  00000-0  00000-0 0  9990
2 41550  56.2272 279.5485 0004795 263.9321  96.0767  1.70474771 26812
GSAT0207 (PRN E07)      
1 41859U 16069A   20258.01647808 -.00000001  00000-0  00000-0 0  9992
2 41859  54.6623 159.3838 0003774 310.7358  49.2775  1.70472684 23727
GSAT0212 (PRN E03)      
1 41860U 16069B   20256.69674083 -.00000001  00000-0  00000-0 0  9991
2 41860  54.6608 159.4192 0003402 337.0659  22.9617  1.70472790 23798
GSAT0213 (PRN E04)      
1 41861U 16069C   20258.23569915 -.00000000  00000-0  00000-0 0  9990
2 41861  54.6630 159.3807 0002869 285.5341  74.4812  1.70472944 23821
GSAT0214 (PRN E05)      
1 41862U 16069D   20256.03639350 -.00000001  00000-0  00000-0 0  9999
2 41862  54.6585 159.4376 0002273 296.6423  63.3770  1.70472663 23778
GSAT0215 (PRN E21)      
1 43055U 17079A   20258.28601324  .00000046  00000-0  00000-0 0  9994
2 43055  56.2016 279.3588 0004258 259.0762 100.9388  1.70474035 17155
GSAT0216 (PRN E25)      
1 43056U 17079B   20257.99212589  .00000046  00000-0  00000+0 0  9992
2 43056  56.2021 279.3666 0006068 264.1017  95.8924  1.70474165 17130
GSAT0217 (PRN E27)      
1 43057U 17079C   20258.21219096  .00000046  00000-0  00000+0 0  9999
2 43057  56.2000 279.3610 0005468 272.5421  87.4584  1.70474168 17156
GSAT0218 (PRN E31)      
1 43058U 17079D   20257.25902270  .00000046  00000-0  00000+0 0  9996
2 43058  56.2010 279.3846 0006541 261.7109  98.2782  1.70474156 17130
GSAT0221 (PRN E15)      
1 43564U 18060A   20258.33174507 -.00000043  00000-0  00000-0 0  9992
2 43564  56.8661  38.6158 0003072 246.5790 113.3932  1.70475998 13334
GSAT0222 (PRN E33)      
1 43565U 18060B   20257.96501640 -.00000042  00000-0  00000-0 0  9992
2 43565  56.8679  38.6254 0002510 255.5065 104.4713  1.70476028 13379
GSAT0219 (PRN E36)      
1 43566U 18060C   20257.59876163 -.00000042  00000-0  00000+0 0  9996
2 43566  56.8680  38.6371 0002410 244.2875 115.6944  1.70475906 13346
GSAT0220 (PRN E13)      
1 43567U 18060D   20257.81863077 -.00000042  00000-0  00000+0 0  9992
2 43567  56.8683  38.6321 0002600 248.0766 111.9019  1.70475782 13329
